INTELSAT 4-F4           
1 05775U 72003A   26088.02900457 -.00000232  00000+0  00000+0 0  9993
2 05775   6.9341 295.0453 0002269  94.8033  91.8926  0.99826685136595
OPS 1570 (DSP 3)        
1 05851U 72010A   26088.17760701 -.00000295  00000+0  00000+0 0  9997
2 05851   0.2154 111.1741 0010059 177.5424 277.0864  0.99779371 25131
INTELSAT 4-F5           
1 06052U 72041A   26087.66250269  .00000079  00000+0  00000+0 0  9990
2 06052   5.9283 287.5919 0003202 326.5791  33.1826  1.00100851 45854
OPS 6063                
1 06380U 73013A   26088.13028683 -.00000119  00000+0  00000+0 0  9996
2 06380   0.5463 248.2186 0012563 278.9325 142.4979  1.00274042 25622
ANIK A2 (TELESAT 2)     
1 06437U 73023A   26087.93130719 -.00000294  00000+0  00000+0 0  9995
2 06437   7.1178 296.5286 0011987  70.6267 306.4265  0.99806556 46350
OPS 6157 (DSP 4)        
1 06691U 73040A   26087.99971112 -.00000356  00000+0  00000+0 0  9991
2 06691   1.0694 230.2866 0008147  67.1348  25.5348  0.99826547 25149
WESTAR 1                
1 07250U 74022A   26088.06245804 -.00000213  00000+0  00000+0 0  9997
2 07250   7.2897 298.5925 0006437  39.9952 324.2110  0.99890209121537
MOLNIYA 1-S             
1 07392U 74060A   26088.06323804 -.00000317  00000+0  00000+0 0  9998
2 07392   1.5784 253.8384 0007639 281.3484 131.6007  1.00323480133372
WESTAR 2                
1 07466U 74075A   26087.96377944 -.00000311  00000+0  00000+0 0  9992
2 07466   7.4391 300.2982 0001604 223.1457 325.4909  0.99857510136857
INTELSAT 4-F8           
1 07544U 74093A   26087.83319889 -.00000006  00000+0  00000+0 0  9990
2 07544   8.1400 305.1053 0001424 209.6311 347.8662  0.99790847124405
SKYNET 2B               
1 07547U 74094A   26088.12803348 -.00000040  00000+0  00000+0 0  9993
2 07547   3.7736 281.4221 0000895 170.7168 205.0758  1.00390296123961
SYMPHONIE 1             
1 07578U 74101A   26088.11783826  .00000012  00000+0  00000+0 0  9991
2 07578   4.7813 278.0329 0003856  38.3588 286.2457  0.99959425116396
ANIK A3 (TELESAT 3)     
1 07790U 75038A   26087.69810736  .00000080  00000+0  00000+0 0  9995
2 07790   7.8719 303.3327 0002343  37.0867 151.4225  1.00036012129152
SYMPHONIE 2             
1 08132U 75077A   26088.15316693  .00000049  00000+0  00000+0 0  9999
2 08132   4.2451 275.6203 0006564  50.6558 106.9316  0.99979110141655
INTELSAT 4A-F1          
1 08330U 75091A   26088.12916017 -.00000009  00000+0  00000+0 0  9995
2 08330   8.0398 304.8457 0003944 276.0206  82.4419  0.99917112120660
COSMOS 775              
1 08357U 75097A   26088.12534681  .00000093  00000+0  00000+0 0  9995
2 08357   2.5660 262.6618 0010492 177.1435 203.0411  1.00207105130965
GOES 1 (SMS-C)          
1 08366U 75100A   26088.16200694  .00000003  00000+0  00000+0 0  9999
2 08366   4.8118 278.4565 0004814   2.3847 200.5696  1.00243042184260
