[{"OBJECT_NAME":"INTELSAT 4-F4","OBJECT_ID":"1972-003A","EPOCH":"2026-03-29T00:41:45.994848","MEAN_MOTION":0.99826685,"ECCENTRICITY":0.0002269,"INCLINATION":6.9341,"RA_OF_ASC_NODE":295.0453,"ARG_OF_PERICENTER":94.8033,"MEAN_ANOMALY":91.8926,"EPHEMERIS_TYPE":0,"CLASSIFICATION_TYPE":"U","NORAD_CAT_ID":5775,"ELEMENT_SET_NO":999,"REV_AT_EPOCH":13659,"BSTAR":0,"MEAN_MOTION_DOT":-2.32e-6,"MEAN_MOTION_DDOT":0},{"OBJECT_NAME":"OPS 1570 (DSP 3)","OBJECT_ID":"1972-010A","EPOCH":"2026-03-29T04:15:45.245664","MEAN_MOTION":0.99779371,"ECCENTRICITY":0.0010059,"INCLINATION":0.2154,"RA_OF_ASC_NODE":111.1741,"ARG_OF_PERICENTER":177.5424,"MEAN_ANOMALY":277.0864,"EPHEMERIS_TYPE":0,"CLASSIFICATION_TYPE":"U","NORAD_CAT_ID":5851,"ELEMENT_SET_NO":999,"REV_AT_EPOCH":2513,"BSTAR":0,"MEAN_MOTION_DOT":-2.95e-6,"MEAN_MOTION_DDOT":0},{"OBJECT_NAME":"INTELSAT 4-F5","OBJECT_ID":"1972-041A","EPOCH":"2026-03-28T15:54:00.232416","MEAN_MOTION":1.00100851,"ECCENTRICITY":0.0003202,"INCLINATION":5.9283,"RA_OF_ASC_NODE":287.5919,"ARG_OF_PERICENTER":326.5791,"MEAN_ANOMALY":33.1826,"EPHEMERIS_TYPE":0,"CLASSIFICATION_TYPE":"U","NORAD_CAT_ID":6052,"ELEMENT_SET_NO":999,"REV_AT_EPOCH":4585,"BSTAR":0,"MEAN_MOTION_DOT":7.9e-7,"MEAN_MOTION_DDOT":0},{"OBJECT_NAME":"OPS 6063","OBJECT_ID":"1973-013A","EPOCH":"2026-03-29T03:07:36.782112","MEAN_MOTION":1.00274042,"ECCENTRICITY":0.0012563,"INCLINATION":0.5463,"RA_OF_ASC_NODE":248.2186,"ARG_OF_PERICENTER":278.9325,"MEAN_ANOMALY":142.4979,"EPHEMERIS_TYPE":0,"CLASSIFICATION_TYPE":"U","NORAD_CAT_ID":6380,"ELEMENT_SET_NO":999,"REV_AT_EPOCH":2562,"BSTAR":0,"MEAN_MOTION_DOT":-1.19e-6,"MEAN_MOTION_DDOT":0},{"OBJECT_NAME":"ANIK A2 (TELESAT 2)","OBJECT_ID":"1973-023A","EPOCH":"2026-03-28T22:21:04.941216","MEAN_MOTION":0.99806556,"ECCENTRICITY":0.0011987,"INCLINATION":7.1178,"RA_OF_ASC_NODE":296.5286,"ARG_OF_PERICENTER":70.6267,"MEAN_ANOMALY":306.4265,"EPHEMERIS_TYPE":0,"CLASSIFICATION_TYPE":"U","NORAD_CAT_ID":6437,"ELEMENT_SET_NO":999,"REV_AT_EPOCH":4635,"BSTAR":0,"MEAN_MOTION_DOT":-2.94e-6,"MEAN_MOTION_DDOT":0},{"OBJECT_NAME":"OPS 6157 (DSP 4)","OBJECT_ID":"1973-040A","EPOCH":"2026-03-28T23:59:35.040768","MEAN_MOTION":0.99826547,"ECCENTRICITY":0.0008147,"INCLINATION":1.0694,"RA_OF_ASC_NODE":230.2866,"ARG_OF_PERICENTER":67.1348,"MEAN_ANOMALY":25.5348,"EPHEMERIS_TYPE":0,"CLASSIFICATION_TYPE":"U","NORAD_CAT_ID":6691,"ELEMENT_SET_NO":999,"REV_AT_EPOCH":2514,"BSTAR":0,"MEAN_MOTION_DOT":-3.56e-6,"MEAN_MOTION_DDOT":0},{"OBJECT_NAME":"WESTAR 1","OBJECT_ID":"1974-022A","EPOCH":"2026-03-29T01:29:56.374656","MEAN_MOTION":0.99890209,"ECCENTRICITY":0.0006437,"INCLINATION":7.2897,"RA_OF_ASC_NODE":298.5925,"ARG_OF_PERICENTER":39.9952,"MEAN_ANOMALY":324.211,"EPHEMERIS_TYPE":0,"CLASSIFICATION_TYPE":"U","NORAD_CAT_ID":7250,"ELEMENT_SET_NO":999,"REV_AT_EPOCH":12153,"BSTAR":0,"MEAN_MOTION_DOT":-2.13e-6,"MEAN_MOTION_DDOT":0},{"OBJECT_NAME":"MOLNIYA 1-S","OBJECT_ID":"1974-060A","EPOCH":"2026-03-29T01:31:03.766656","MEAN_MOTION":1.0032348,"ECCENTRICITY":0.0007639,"INCLINATION":1.5784,"RA_OF_ASC_NODE":253.8384,"ARG_OF_PERICENTER":281.3484,"MEAN_ANOMALY":131.6007,"EPHEMERIS_TYPE":0,"CLASSIFICATION_TYPE":"U","NORAD_CAT_ID":7392,"ELEMENT_SET_NO":999,"REV_AT_EPOCH":13337,"BSTAR":0,"MEAN_MOTION_DOT":-3.17e-6,"MEAN_MOTION_DDOT":0},{"OBJECT_NAME":"WESTAR 2","OBJECT_ID":"1974-075A","EPOCH":"2026-03-28T23:07:50.543616","MEAN_MOTION":0.9985751,"ECCENTRICITY":0.0001604,"INCLINATION":7.4391,"RA_OF_ASC_NODE":300.2982,"ARG_OF_PERICENTER":223.1457,"MEAN_ANOMALY":325.4909,"EPHEMERIS_TYPE":0,"CLASSIFICATION_TYPE":"U","NORAD_CAT_ID":7466,"ELEMENT_SET_NO":999,"REV_AT_EPOCH":13685,"BSTAR":0,"MEAN_MOTION_DOT":-3.11e-6,"MEAN_MOTION_DDOT":0},{"OBJECT_NAME":"INTELSAT 4-F8","OBJECT_ID":"1974-093A","EPOCH":"2026-03-28T19:59:48.384096","MEAN_MOTION":0.99790847,"ECCENTRICITY":0.00014242,"INCLINATION":8.14,"RA_OF_ASC_NODE":305.1053,"ARG_OF_PERICENTER":209.6311,"MEAN_ANOMALY":347.8662,"EPHEMERIS_TYPE":0,"CLASSIFICATION_TYPE":"U","NORAD_CAT_ID":7544,"ELEMENT_SET_NO":999,"REV_AT_EPOCH":12440,"BSTAR":0,"MEAN_MOTION_DOT":-6.0e-8,"MEAN_MOTION_DDOT":0},{"OBJECT_NAME":"SKYNET 2B","OBJECT_ID":"1974-094A","EPOCH":"2026-03-29T03:04:22.092672","MEAN_MOTION":1.00390296,"ECCENTRICITY":8.95e-5,"INCLINATION":3.7736,"RA_OF_ASC_NODE":281.4221,"ARG_OF_PERICENTER":170.7168,"MEAN_ANOMALY":205.0758,"EPHEMERIS_TYPE":0,"CLASSIFICATION_TYPE":"U","NORAD_CAT_ID":7547,"ELEMENT_SET_NO":999,"REV_AT_EPOCH":12396,"BSTAR":0,"MEAN_MOTION_DOT":-4.0e-7,"MEAN_MOTION_DDOT":0},{"OBJECT_NAME":"SYMPHONIE 1","OBJECT_ID":"1974-101A","EPOCH":"2026-03-29T02:49:41.225664","MEAN_MOTION":0.99959425,"ECCENTRICITY":0.0003856,"INCLINATION":4.7813,"RA_OF_ASC_NODE":278.0329,"ARG_OF_PERICENTER":38.3588,"MEAN_ANOMALY":286.2457,"EPHEMERIS_TYPE":0,"CLASSIFICATION_TYPE":"U","NORAD_CAT_ID":7578,"ELEMENT_SET_NO":999,"REV_AT_EPOCH":11639,"BSTAR":0,"MEAN_MOTION_DOT":1.2e-7,"MEAN_MOTION_DDOT":0},{"OBJECT_NAME":"ANIK A3 (TELESAT 3)","OBJECT_ID":"1975-038A","EPOCH":"2026-03-28T16:45:16.475904","MEAN_MOTION":1.00036012,"ECCENTRICITY":0.00023431,"INCLINATION":7.8719,"RA_OF_ASC_NODE":303.3327,"ARG_OF_PERICENTER":37.0867,"MEAN_ANOMALY":151.4225,"EPHEMERIS_TYPE":0,"CLASSIFICATION_TYPE":"U","NORAD_CAT_ID":7790,"ELEMENT_SET_NO":999,"REV_AT_EPOCH":12915,"BSTAR":0,"MEAN_MOTION_DOT":8.0e-7,"MEAN_MOTION_DDOT":0},{"OBJECT_NAME":"SYMPHONIE 2","OBJECT_ID":"1975-077A","EPOCH":"2026-03-29T03:40:33.622752","MEAN_MOTION":0.9997911,"ECCENTRICITY":0.0006564,"INCLINATION":4.2451,"RA_OF_ASC_NODE":275.6203,"ARG_OF_PERICENTER":50.6558,"MEAN_ANOMALY":106.9316,"EPHEMERIS_TYPE":0,"CLASSIFICATION_TYPE":"U","NORAD_CAT_ID":8132,"ELEMENT_SET_NO":999,"REV_AT_EPOCH":14165,"BSTAR":0,"MEAN_MOTION_DOT":4.9e-7,"MEAN_MOTION_DDOT":0},{"OBJECT_NAME":"INTELSAT 4A-F1","OBJECT_ID":"1975-091A","EPOCH":"2026-03-29T03:05:59.438688","MEAN_MOTION":0.99917112,"ECCENTRICITY":0.0003944,"INCLINATION":8.0398,"RA_OF_ASC_NODE":304.8457,"ARG_OF_PERICENTER":276.0206,"MEAN_ANOMALY":82.4419,"EPHEMERIS_TYPE":0,"CLASSIFICATION_TYPE":"U","NORAD_CAT_ID":8330,"ELEMENT_SET_NO":999,"REV_AT_EPOCH":12066,"BSTAR":0,"MEAN_MOTION_DOT":-9.0e-8,"MEAN_MOTION_DDOT":0},{"OBJECT_NAME":"COSMOS 775","OBJECT_ID":"1975-097A","EPOCH":"2026-03-29T03:00:29.964384","MEAN_MOTION":1.00207105,"ECCENTRICITY":0.0010492,"INCLINATION":2.566,"RA_OF_ASC_NODE":262.6618,"ARG_OF_PERICENTER":177.1435,"MEAN_ANOMALY":203.0411,"EPHEMERIS_TYPE":0,"CLASSIFICATION_TYPE":"U","NORAD_CAT_ID":8357,"ELEMENT_SET_NO":999,"REV_AT_EPOCH":13096,"BSTAR":0,"MEAN_MOTION_DOT":9.3e-7,"MEAN_MOTION_DDOT":0},{"OBJECT_NAME":"GOES 1 (SMS-C)","OBJECT_ID":"1975-100A","EPOCH":"2026-03-29T03:53:17.399616","MEAN_MOTION":1.00243042,"ECCENTRICITY":0.0004814,"INCLINATION":4.8118,"RA_OF_ASC_NODE":278.4565,"ARG_OF_PERICENTER":2.3847,"MEAN_ANOMALY":200.5696,"EPHEMERIS_TYPE":0,"CLASSIFICATION_TYPE":"U","NORAD_CAT_ID":8366,"ELEMENT_SET_NO":999,"REV_AT_EPOCH":18426,"BSTAR":0,"MEAN_MOTION_DOT":3.0e-8,"MEAN_MOTION_DDOT":0}]
